QIANFAN-1               
1 60379U 24140A   25349.35895788  .00000089  00000+0  11917-3 0  9990
2 60379  88.9761 299.0089 0016264 202.3506 157.6938 13.50978498 67703
QIANFAN-2               
1 60380U 24140B   25349.31388131  .00000109  00000+0  15020-3 0  9999
2 60380  88.9748 298.8526 0012441 171.1274 189.0100 13.50982210 67753
QIANFAN-3               
1 60381U 24140C   25349.32204454  .00000088  00000+0  11755-3 0  9993
2 60381  88.9740 298.9842 0013131 184.8747 175.2278 13.50982714 67663
QIANFAN-4               
1 60382U 24140D   25349.29723085  .00000089  00000+0  11846-3 0  9998
2 60382  88.9765 298.8850 0012575 174.0383 186.0920 13.50978425 67788
QIANFAN-5               
1 60383U 24140E   25349.34673665  .00000107  00000+0  14726-3 0  9994
2 60383  88.9740 299.0070 0014060 197.3934 162.6738 13.50980403 67652
QIANFAN-6               
1 60384U 24140F   25349.29326470  .00000108  00000+0  14921-3 0  9996
2 60384  88.9767 298.7594 0012506 180.2274 179.8874 13.50980792 67843
QIANFAN-7               
1 60385U 24140G   25349.26792223  .00000740  00000+0  29425-3 0  9994
2 60385  88.9782 293.4239 0016771  38.3148 321.9234 14.27652896 70750
QIANFAN-8               
1 60386U 24140H   25349.30152920  .00000097  00000+0  13203-3 0  9996
2 60386  88.9768 298.9962 0015867 184.3101 175.7916 13.50978664 67694
